ALOS (DAICHI)           
1 28931U 06002A   26043.44988826  .00001650  00000+0  28519-3 0  9994
2 28931  98.1173 359.5410 0001941  61.7200 298.4202 14.69725875 69772
H-2A R/B                
1 28932U 06002B   26043.39782270  .00009851  00000+0  50044-3 0  9993
2 28932  98.2361 188.2660 0052504 328.4122  31.3960 15.15903763 90601
RESURS-DK 1             
1 29228U 06021A   26043.14246919  .00002963  00000+0  17541-3 0  9993
2 29228  69.9344 303.1005 0004260 200.4602 159.6394 15.12596727 83663
CZ-4B R/B               
1 29507U 06046C   26043.07812349  .00005678  00000+0  28988-3 0  9991
2 29507  97.5650  88.0542 0033336 359.1537   0.9633 15.16625827 56167
CZ-2C R/B               
1 31114U 07010B   26043.29335272  .00000125  00000+0  76577-4 0  9999
2 31114  98.3970 157.8472 0059090   9.2239 351.0009 14.20237340976118
COSMO-SKYMED 1          
1 31598U 07023A   26043.52245188  .00004133  00000+0  37056-3 0  9992
2 31598  97.8859 234.3566 0000956  91.9323 268.2007 14.96332490 11143
COSMOS 2428             
1 31792U 07029A   26043.04843166  .00000308  00000+0  19118-3 0  9990
2 31792  70.9396 257.1679 0007542 305.4959  54.5457 14.12935198960477
SL-16 R/B               
1 31793U 07029B   26043.45770223  .00000291  00000+0  17548-3 0  9995
2 31793  70.9740 225.4219 0002130 280.7205 103.4774 14.14834946961801
KORONAS-FOTON           
1 33504U 09003A   26043.21264412  .00014756  00000+0  33739-3 0  9994
2 33504  82.4317 302.3494 0009002 246.4664 113.5637 15.42650772941818
CZ-2C R/B               
1 37731U 11030B   26043.49159183  .00001780  00000+0  23018-3 0  9993
2 37731  97.8498   1.2696 0054172  72.7799  43.3834 14.81123240786363
H-2A R/B                
1 38341U 12025E   26043.49679830  .00004467  00000+0  40696-3 0  9998
2 38341  98.4676   8.5403 0045538  36.6700 323.7620 14.94941990744455
SHIJIAN-16 (SJ-16)      
1 39358U 13057A   26043.55548078  .00002113  00000+0  20940-3 0  9995
2 39358  74.9706 232.6662 0016619 175.6689 184.4646 14.92252052667751
